[{"OBJECT_NAME":"STARLINK-6181","OBJECT_ID":"2023-083N","EPOCH":"2026-03-09T10:26:03.416064","MEAN_MOTION":15.02525708,"ECCENTRICITY":0.00014983,"INCLINATION":43.0047,"RA_OF_ASC_NODE":83.0246,"ARG_OF_PERICENTER":277.4527,"MEAN_ANOMALY":82.6145,"EPHEMERIS_TYPE":0,"CLASSIFICATION_TYPE":"U","NORAD_CAT_ID":56888,"ELEMENT_SET_NO":999,"REV_AT_EPOCH":15163,"BSTAR":-9.7296208e-5,"MEAN_MOTION_DOT":-1.517e-5,"MEAN_MOTION_DDOT":0},{"OBJECT_NAME":"COSMOS 1263","OBJECT_ID":"1981-033A","EPOCH":"2026-03-09T22:16:18.723072","MEAN_MOTION":14.29193035,"ECCENTRICITY":0.05805392,"INCLINATION":82.8561,"RA_OF_ASC_NODE":296.4467,"ARG_OF_PERICENTER":35.3286,"MEAN_ANOMALY":328.4954,"EPHEMERIS_TYPE":0,"CLASSIFICATION_TYPE":"U","NORAD_CAT_ID":12388,"ELEMENT_SET_NO":999,"REV_AT_EPOCH":25724,"BSTAR":0.00036478764,"MEAN_MOTION_DOT":6.481e-5,"MEAN_MOTION_DDOT":0}]
